NORAD_CAT_ID,OBJECT_NAME,OBJECT_TYPE,EPOCH,MEAN_MOTION,ECCENTRICITY,INCLINATION,RA_OF_ASC_NODE,ARG_OF_PERICENTER,MEAN_ANOMALY,BSTAR,MEAN_MOTION_DOT,MEAN_MOTION_DDOT,TLE_LINE0,TLE_LINE1,TLE_LINE2,SEMIMAJOR_AXIS,PERIOD,APOGEE,PERIGEE,DECAYED
53603.0,STARLINK-4692,PAYLOAD,2023-11-20 13:45:48,15.08844185,0.0001473,53.218,50.7242,86.5218,273.5943,0.00011412,1.529e-05,0.0,0 STARLINK-4692,1 53603U 22104R   23324.57347642  .00001529  00000-0  11412-3 0  9997,2 53603  53.2180  50.7242 0001473  86.5218 273.5943 15.08844185 68857,6917.868,95.437,540.752,538.714,0.0
53603.0,STARLINK-4692,PAYLOAD,2023-11-21 12:01:11,15.08848765,0.0001512,53.2182,46.5614,88.2319,271.8846,0.00015742,2.219e-05,0.0,0 STARLINK-4692,1 53603U 22104R   23325.50083298  .00002219  00000-0  15742-3 0  9992,2 53603  53.2182  46.5614 0001512  88.2319 271.8846 15.08848765 68996,6917.854,95.437,540.765,538.673,0.0
53603.0,STARLINK-4692,PAYLOAD,2023-11-22 10:16:35,15.08849536,0.0001557,53.2183,42.3975,90.8714,269.2457,0.00018071,2.59e-05,0.0,0 STARLINK-4692,1 53603U 22104R   23326.42818951  .00002590  00000-0  18071-3 0  9996,2 53603  53.2183  42.3975 0001557  90.8714 269.2457 15.08849536 68444,6917.851,95.437,540.793,538.639,0.0
53603.0,STARLINK-4692,PAYLOAD,2023-11-23 11:42:45,15.08841188,0.0001445,53.2179,37.6403,98.9912,261.1243,-1.2734e-05,-4.91e-06,0.0,0 STARLINK-4692,1 53603U 22104R   23327.48803171 -.00000491  00000-0 -12734-4 0  9992,2 53603  53.2179  37.6403 0001445  98.9912 261.1243 15.08841188 68604,6917.877,95.437,540.741,538.742,0.0
53603.0,STARLINK-4692,PAYLOAD,2023-11-23 14:53:32,15.08842593,0.0001398,53.2177,37.0441,97.545,262.5701,7.5467e-06,-1.68e-06,0.0,0 STARLINK-4692,1 53603U 22104R   23327.62051052 -.00000168  00000-0  75467-5 0  9994,2 53603  53.2177  37.0441 0001398  97.5450 262.5701 15.08842593 69311,6917.872,95.437,540.705,538.77,0.0
53603.0,STARLINK-4692,PAYLOAD,2023-11-24 11:33:34,15.08825085,0.0001914,53.2185,33.1799,116.9309,243.1879,-3.731e-05,-8.82e-06,0.0,0 STARLINK-4692,1 53603U 22104R   23328.48164547 -.00000882  00000-0 -37310-4 0  9991,2 53603  53.2185  33.1799 0001914 116.9309 243.1879 15.08825085 68751,6917.926,95.438,541.115,538.467,0.0
53603.0,STARLINK-4692,PAYLOAD,2023-11-24 14:44:20,15.08830075,0.0001618,53.218,32.5827,105.1291,254.988,-5.9042e-05,-1.227e-05,0.0,0 STARLINK-4692,1 53603U 22104R   23328.61412315 -.00001227  00000-0 -59042-4 0  9995,2 53603  53.2180  32.5827 0001618 105.1291 254.9880 15.08830075 69468,6917.911,95.438,540.895,538.656,0.0
53603.0,STARLINK-4692,PAYLOAD,2023-11-25 09:48:57,15.0884174,0.0001646,53.2186,29.0188,102.6908,257.4268,0.00025065,3.704e-05,0.0,0 STARLINK-4692,1 53603U 22104R   23329.40900422  .00003704  00000-0  25065-3 0  9991,2 53603  53.2186  29.0188 0001646 102.6908 257.4268 15.08841740 69585,6917.875,95.437,540.879,538.601,0.0
53603.0,STARLINK-4692,PAYLOAD,2023-11-25 14:35:07,15.08853972,0.0001661,53.2188,28.1203,106.7893,253.3282,0.00055053,8.488e-05,0.0,0 STARLINK-4692,1 53603U 22104R   23329.60772066  .00008488  00000-0  55053-3 0  9998,2 53603  53.2188  28.1203 0001661 106.7893 253.3282 15.08853972 69615,6917.838,95.437,540.852,538.554,0.0
53603.0,STARLINK-4692,PAYLOAD,2023-11-26 11:15:07,15.08855252,0.0001943,53.2186,24.2593,65.539,294.5805,0.00037642,5.71e-05,0.0,0 STARLINK-4692,1 53603U 22104R   23330.46883626  .00005710  00000-0  37642-3 0  9998,2 53603  53.2186  24.2593 0001943  65.5390 294.5805 15.08855252 69058,6917.834,95.437,541.043,538.355,0.0
53603.0,STARLINK-4692,PAYLOAD,2023-11-26 12:50:30,15.0886404,0.0001871,53.2191,23.9598,91.2627,268.858,0.00047202,7.237e-05,0.0,0 STARLINK-4692,1 53603U 22104R   23330.53507100  .00007237  00000-0  47202-3 0  9995,2 53603  53.2191  23.9598 0001871  91.2627 268.8580 15.08864040 69750,6917.807,95.436,540.966,538.378,0.0
53603.0,STARLINK-4692,PAYLOAD,2023-11-27 03:09:00,15.08812061,0.0001656,53.2187,21.2908,68.9148,291.2022,-0.00050326,-8.282e-05,0.0,0 STARLINK-4692,1 53603U 22104R   23331.13125482 -.00008282  00000-0 -50326-3 0  9995,2 53603  53.2187  21.2908 0001656  68.9148 291.2022 15.08812061 69152,6917.966,95.439,540.976,538.685,0.0
53603.0,STARLINK-4692,PAYLOAD,2023-11-27 11:05:57,15.08812238,0.0001819,53.2191,19.7949,95.4637,264.6563,-0.00042002,-6.961e-05,0.0,0 STARLINK-4692,1 53603U 22104R   23331.46246632 -.00006961  00000-0 -42002-3 0  9996,2 53603  53.2191  19.7949 0001819  95.4637 264.6563 15.08812238 69894,6917.965,95.439,541.089,538.572,0.0
53603.0,STARLINK-4692,PAYLOAD,2023-11-28 09:21:19,15.08864021,0.0001995,53.2196,15.6328,102.9823,257.1392,0.00037279,5.654e-05,0.0,0 STARLINK-4692,1 53603U 22104R   23332.38980428  .00005654  00000-0  37279-3 0  9992,2 53603  53.2196  15.6328 0001995 102.9823 257.1392 15.08864021 69345,6917.807,95.436,541.052,538.292,0.0
53603.0,STARLINK-4692,PAYLOAD,2023-11-29 12:22:53,15.08848738,0.0002093,53.2195,10.5738,103.9546,256.1679,0.00047114,7.22e-05,0.0,0 STARLINK-4692,1 53603U 22104R   23333.51589836  .00007220  00000-0  47114-3 0  9996,2 53603  53.2195  10.5738 0002093 103.9546 256.1679 15.08848738 69519,6917.854,95.437,541.167,538.271,0.0
53603.0,STARLINK-4692,PAYLOAD,2023-11-30 02:41:22,15.08825129,0.0002393,53.2192,7.8922,114.5334,245.5908,0.00053167,8.18e-05,0.0,0 STARLINK-4692,1 53603U 22104R   23334.11206046  .00008180  00000-0  53167-3 0  9993,2 53603  53.2192   7.8922 0002393 114.5334 245.5908 15.08825129 69602,6917.926,95.438,541.446,538.135,0.0
53603.0,STARLINK-4692,PAYLOAD,2023-11-30 09:02:53,15.08855157,0.0002031,53.218,6.7139,104.7872,255.3345,-5.9147e-05,-1.23e-05,0.0,0 STARLINK-4692,1 53603U 22104R   23334.37700587 -.00001230  00000-0 -59147-4 0  9996,2 53603  53.2180   6.7139 0002031 104.7872 255.3345 15.08855157 69646,6917.834,95.437,541.104,538.294,0.0
53603.0,STARLINK-4692,PAYLOAD,2023-12-01 12:04:26,15.08845448,0.0001998,53.2185,1.653,104.4564,255.665,4.7246e-05,4.64e-06,0.0,0 STARLINK-4692,1 53603U 22104R   23335.50308994  .00000464  00000-0  47246-4 0  9991,2 53603  53.2185   1.6530 0001998 104.4564 255.6650 15.08845448 69819,6917.864,95.437,541.111,538.347,0.0
53603.0,STARLINK-4692,PAYLOAD,2023-12-02 11:55:12,15.08879229,0.0001752,53.2166,357.1944,90.9449,269.1744,0.00069703,0.00010834,0.0,0 STARLINK-4692,1 53603U 22104R   23336.49667032  .00010834  00000-0  69703-3 0  9994,2 53603  53.2166 357.1944 0001752  90.9449 269.1744 15.08879229 69969,6917.76,95.435,540.837,538.413,0.0
53603.0,STARLINK-4692,PAYLOAD,2023-12-03 02:13:43,15.08800115,0.0001603,53.2177,354.5182,92.796,267.3216,-0.00079927,-0.00012972,0.0,0 STARLINK-4692,1 53603U 22104R   23337.09286202 -.00012972  00000-0 -79927-3 0  9993,2 53603  53.2177 354.5182 0001603  92.7960 267.3216 15.08800115 70053,6918.002,95.44,540.976,538.758,0.0
53603.0,STARLINK-4692,PAYLOAD,2023-12-03 08:35:16,15.08799046,0.0001791,53.2173,353.3287,95.1869,264.9328,-0.0007962,-0.00012923,0.0,0 STARLINK-4692,1 53603U 22104R   23337.35782543 -.00012923  00000-0 -79620-3 0  9997,2 53603  53.2173 353.3287 0001791  95.1869 264.9328 15.08799046 70782,6918.006,95.44,541.11,538.632,0.0
53603.0,STARLINK-4692,PAYLOAD,2023-12-03 13:21:25,15.0880184,0.0001705,53.2173,352.4364,89.4775,270.6412,-0.0005642,-9.247e-05,0.0,0 STARLINK-4692,1 53603U 22104R   23337.55654924 -.00009247  00000-0 -56420-3 0  9998,2 53603  53.2173 352.4364 0001705  89.4775 270.6412 15.08801840 70127,6917.997,95.44,541.042,538.683,0.0
53603.0,STARLINK-4692,PAYLOAD,2023-12-04 00:29:07,15.08821638,0.0002257,53.2166,350.3561,106.1896,253.9344,0.00056596,8.726e-05,0.0,0 STARLINK-4692,1 53603U 22104R   23338.02023125  .00008726  00000-0  56596-3 0  9997,2 53603  53.2166 350.3561 0002257 106.1896 253.9344 15.08821638 70191,6917.937,95.439,541.363,538.24,0.0
53603.0,STARLINK-4692,PAYLOAD,2023-12-04 10:01:27,15.08855967,0.0002097,53.2171,348.5759,74.9985,285.1239,0.0014242,0.00022461,0.0,0 STARLINK-4692,1 53603U 22104R   23338.41767559  .00022461  00000-0  14242-2 0  9999,2 53603  53.2171 348.5759 0002097  74.9985 285.1239 15.08855967 70257,6917.832,95.437,541.147,538.246,0.0
53603.0,STARLINK-4692,PAYLOAD,2023-12-05 00:19:54,15.08868221,0.0002156,53.2169,345.8997,75.479,284.6441,0.0010473,0.00016432,0.0,0 STARLINK-4692,1 53603U 22104R   23339.01382863  .00016432  00000-0  10473-2 0  9990,2 53603  53.2169 345.8997 0002156  75.4790 284.6441 15.08868221 70340,6917.794,95.436,541.151,538.168,0.0
53603.0,STARLINK-4692,PAYLOAD,2023-12-05 08:16:49,15.08877864,0.0002176,53.217,344.4127,74.3221,285.8011,0.00099565,0.0001561,0.0,0 STARLINK-4692,1 53603U 22104R   23339.34502139  .00015610  00000-0  99565-3 0  9993,2 53603  53.2170 344.4127 0002176  74.3221 285.8011 15.08877864 71082,6917.765,95.435,541.135,538.124,0.0
53603.0,STARLINK-4692,PAYLOAD,2023-12-06 04:56:49,15.08869865,0.0002461,53.2171,340.5469,75.1295,284.9969,0.00062246,9.64e-05,0.0,0 STARLINK-4692,1 53603U 22104R   23340.20613249  .00009640  00000-0  62246-3 0  9997,2 53603  53.2171 340.5469 0002461  75.1295 284.9969 15.08869865 70528,6917.789,95.436,541.357,537.952,0.0
53603.0,STARLINK-4692,PAYLOAD,2023-12-06 06:32:12,15.0886784,0.0002044,53.217,340.2495,86.927,273.1956,0.00046794,7.173e-05,0.0,0 STARLINK-4692,1 53603U 22104R   23340.27236966  .00007173  00000-0  46794-3 0  9990,2 53603  53.2170 340.2495 0002044  86.9270 273.1956 15.08867840 71228,6917.795,95.436,541.074,538.246,0.0
53603.0,STARLINK-4692,PAYLOAD,2023-12-07 03:12:14,15.08827887,0.0001844,53.2175,336.3815,84.8408,275.2795,0.00037164,5.63e-05,0.0,0 STARLINK-4692,1 53603U 22104R   23341.13349773  .00005630  00000-0  37164-3 0  9994,2 53603  53.2175 336.3815 0001844  84.8408 275.2795 15.08827887 70660,6917.917,95.438,541.058,538.507,0.0
53603.0,STARLINK-4692,PAYLOAD,2023-12-07 06:23:00,15.08829987,0.0001843,53.2171,335.7863,91.9325,268.1878,-1.8027e-05,-5.75e-06,0.0,0 STARLINK-4692,1 53603U 22104R   23341.26597737 -.00000575  00000-0 -18027-4 0  9996,2 53603  53.2171 335.7863 0001843  91.9325 268.1878 15.08829987 71373,6917.911,95.438,541.051,538.501,0.0
